{"type": "FeatureCollection", "features": [ {"type": "Feature", "properties": {"norad_id": 31272, "name": "FENGYUN 1C DEB", "group": "fengyun-1c-debris", "lat": 4.2526472322375595, "lon": -150.56658207976653, "alt_km": 868.4104687653098, "timestamp": "2025-12-04T13:52:00.724115+00:00", "meta": {"OBJECT_NAME": "FENGYUN 1C DEB", "OBJECT_ID": "1999-025BNE", "EPOCH": "2025-12-03T09:09:21.720096", "MEAN_MOTION": 14.22886363, "ECCENTRICITY": 0.01064248, "INCLINATION": 99.0924, "RA_OF_ASC_NODE": 208.8811, "ARG_OF_PERICENTER": 139.5439, "MEAN_ANOMALY": 221.3713, "EPHEMERIS_TYPE": 0, "CLASSIFICATION_TYPE": "U", "NORAD_CAT_ID": 31272, "ELEMENT_SET_NO": 999, "REV_AT_EPOCH": 96856, "BSTAR": 0.00065343303, "MEAN_MOTION_DOT": 1.51e-05, "MEAN_MOTION_DDOT": 0}, "tle": {"line1": "1 31272U 99025BNE 25337.38150139  .00001510  00000+0  65343-3 0  9990", "line2": "2 31272  99.0924 208.8811 0106424 139.5439 221.3713 14.22886363968565"}}, "geometry": {"type": "Point", "coordinates": [-150.56658207976653, 4.2526472322375595]}}, {"type": "Feature", "properties": {"norad_id": 31274, "name": "FENGYUN 1C DEB", "group": "fengyun-1c-debris", "lat": -31.029224414711127, "lon": -27.215317256387785, "alt_km": 913.0588355481268, "timestamp": "2025-12-04T13:52:00.724125+00:00", "meta": {"OBJECT_NAME": "FENGYUN 1C DEB", "OBJECT_ID": "1999-025BNG", "EPOCH": "2025-12-03T17:48:31.745376", "MEAN_MOTION": 13.85590053, "ECCENTRICITY": 0.02387233, "INCLINATION": 99.0037, "RA_OF_ASC_NODE": 157.454, "ARG_OF_PERICENTER": 134.4804, "MEAN_ANOMALY": 227.6145, "EPHEMERIS_TYPE": 0, "CLASSIFICATION_TYPE": "U", "NORAD_CAT_ID": 31274, "ELEMENT_SET_NO": 999, "REV_AT_EPOCH": 94082, "BSTAR": 0.0014746578, "MEAN_MOTION_DOT": 2.065e-05, "MEAN_MOTION_DDOT": 0}, "tle": {"line1": "1 31274U 99025BNG 25337.74203409  .00002065  00000+0  14747-2 0  9998", "line2": "2 31274  99.0037 157.4540 0238723 134.4804 227.6145 13.85590053940821"}}, "geometry": {"type": "Point", "coordinates": [-27.215317256387785, -31.029224414711127]}}, {"type": "Feature", "properties": {"norad_id": 31275, "name": "FENGYUN 1C DEB", "group": "fengyun-1c-debris", "lat": -80.99749001449385, "lon": 106.00064928338473, "alt_km": 912.1082556173942, "timestamp": "2025-12-04T13:52:00.724135+00:00", "meta": {"OBJECT_NAME": "FENGYUN 1C DEB", "OBJECT_ID": "1999-025BNH", "EPOCH": "2025-12-03T21:09:46.586016", "MEAN_MOTION": 14.02286947, "ECCENTRICITY": 0.0104268, "INCLINATION": 98.9475, "RA_OF_ASC_NODE": 21.3776, "ARG_OF_PERICENTER": 17.9144, "MEAN_ANOMALY": 342.5654, "EPHEMERIS_TYPE": 0, "CLASSIFICATION_TYPE": "U", "NORAD_CAT_ID": 31275, "ELEMENT_SET_NO": 999, "REV_AT_EPOCH": 95362, "BSTAR": 0.0013913, "MEAN_MOTION_DOT": 2.194e-05, "MEAN_MOTION_DDOT": 0}, "tle": {"line1": "1 31275U 99025BNH 25337.88178919  .00002194  00000+0  13913-2 0  9998", "line2": "2 31275  98.9475  21.3776 0104268  17.9144 342.5654 14.02286947953622"}}, "geometry": {"type": "Point", "coordinates": [106.00064928338473, -80.99749001449385]}}, {"type": "Feature", "properties": {"norad_id": 31279, "name": "FENGYUN 1C DEB", "group": "fengyun-1c-debris", "lat": 80.48961999337676, "lon": -76.35501823797378, "alt_km": 819.397909755895, "timestamp": "2025-12-04T13:52:00.724145+00:00", "meta": {"OBJECT_NAME": "FENGYUN 1C DEB", "OBJECT_ID": "1999-025BNM", "EPOCH": "2025-12-03T07:09:18.210816", "MEAN_MOTION": 14.26271329, "ECCENTRICITY": 0.0073246, "INCLINATION": 98.5172, "RA_OF_ASC_NODE": 345.8443, "ARG_OF_PERICENTER": 205.3522, "MEAN_ANOMALY": 154.4058, "EPHEMERIS_TYPE": 0, "CLASSIFICATION_TYPE": "U", "NORAD_CAT_ID": 31279, "ELEMENT_SET_NO": 999, "REV_AT_EPOCH": 97094, "BSTAR": 0.0006967, "MEAN_MOTION_DOT": 1.676e-05, "MEAN_MOTION_DDOT": 0}, "tle": {"line1": "1 31279U 99025BNM 25337.29812744  .00001676  00000+0  69670-3 0  9994", "line2": "2 31279  98.5172 345.8443 0073246 205.3522 154.4058 14.26271329970941"}}, "geometry": {"type": "Point", "coordinates": [-76.35501823797378, 80.48961999337676]}}, {"type": "Feature", "properties": {"norad_id": 31281, "name": "FENGYUN 1C DEB", "group": "fengyun-1c-debris", "lat": -64.52069853398577, "lon": -85.18960150019836, "alt_km": 569.8633011140382, "timestamp": "2025-12-04T13:52:00.724155+00:00", "meta": {"OBJECT_NAME": "FENGYUN 1C DEB", "OBJECT_ID": "1999-025BNP", "EPOCH": "2025-12-03T08:17:28.646016", "MEAN_MOTION": 15.16437534, "ECCENTRICITY": 0.0115529, "INCLINATION": 98.3826, "RA_OF_ASC_NODE": 111.4749, "ARG_OF_PERICENTER": 123.7833, "MEAN_ANOMALY": 237.4465, "EPHEMERIS_TYPE": 0, "CLASSIFICATION_TYPE": "U", "NORAD_CAT_ID": 31281, "ELEMENT_SET_NO": 999, "REV_AT_EPOCH": 99589, "BSTAR": 0.0019531, "MEAN_MOTION_DOT": 0.0004524, "MEAN_MOTION_DDOT": 0}, "tle": {"line1": "1 31281U 99025BNP 25337.34547044  .00045240  00000+0  19531-2 0  9996", "line2": "2 31281  98.3826 111.4749 0115529 123.7833 237.4465 15.16437534995890"}}, "geometry": {"type": "Point", "coordinates": [-85.18960150019836, -64.52069853398577]}}, {"type": "Feature", "properties": {"norad_id": 31282, "name": "FENGYUN 1C DEB", "group": "fengyun-1c-debris", "lat": -73.48741996698257, "lon": 41.97631358888624, "alt_km": 700.957570032766, "timestamp": "2025-12-04T13:52:00.724165+00:00", "meta": {"OBJECT_NAME": "FENGYUN 1C DEB", "OBJECT_ID": "1999-025BNQ", "EPOCH": "2025-12-04T01:01:39.091584", "MEAN_MOTION": 14.43440055, "ECCENTRICITY": 0.01273597, "INCLINATION": 99.2156, "RA_OF_ASC_NODE": 254.6031, "ARG_OF_PERICENTER": 312.2925, "MEAN_ANOMALY": 46.7522, "EPHEMERIS_TYPE": 0, "CLASSIFICATION_TYPE": "U", "NORAD_CAT_ID": 31282, "ELEMENT_SET_NO": 999, "REV_AT_EPOCH": 96995, "BSTAR": 0.00052019498, "MEAN_MOTION_DOT": 1.882e-05, "MEAN_MOTION_DDOT": 0}, "tle": {"line1": "1 31282U 99025BNQ 25338.04281356  .00001882  00000+0  52019-3 0  9999", "line2": "2 31282  99.2156 254.6031 0127359 312.2925  46.7522 14.43440055969956"}}, "geometry": {"type": "Point", "coordinates": [41.97631358888624, -73.48741996698257]}}, {"type": "Feature", "properties": {"norad_id": 31284, "name": "FENGYUN 1C DEB", "group": "fengyun-1c-debris", "lat": 73.63858242231419, "lon": 36.76396676785624, "alt_km": 789.7198643383181, "timestamp": "2025-12-04T13:52:00.724174+00:00", "meta": {"OBJECT_NAME": "FENGYUN 1C DEB", "OBJECT_ID": "1999-025BNS", "EPOCH": "2025-12-04T01:29:00.574944", "MEAN_MOTION": 13.97873792, "ECCENTRICITY": 0.01436252, "INCLINATION": 99.7227, "RA_OF_ASC_NODE": 71.9489, "ARG_OF_PERICENTER": 82.105, "MEAN_ANOMALY": 279.6385, "EPHEMERIS_TYPE": 0, "CLASSIFICATION_TYPE": "U", "NORAD_CAT_ID": 31284, "ELEMENT_SET_NO": 999, "REV_AT_EPOCH": 95041, "BSTAR": 0.0012887037, "MEAN_MOTION_DOT": 1.945e-05, "MEAN_MOTION_DDOT": 0}, "tle": {"line1": "1 31284U 99025BNS 25338.06181221  .00001945  00000+0  12887-2 0  9991", "line2": "2 31284  99.7227  71.9489 0143625  82.1050 279.6385 13.97873792950416"}}, "geometry": {"type": "Point", "coordinates": [36.76396676785624, 73.63858242231419]}}, {"type": "Feature", "properties": {"norad_id": 31285, "name": "FENGYUN 1C DEB", "group": "fengyun-1c-debris", "lat": -39.64488698029244, "lon": -33.654650305808545, "alt_km": 855.7965637754705, "timestamp": "2025-12-04T13:52:00.724206+00:00", "meta": {"OBJECT_NAME": "FENGYUN 1C DEB", "OBJECT_ID": "1999-025BNT", "EPOCH": "2025-12-03T10:11:52.167840", "MEAN_MOTION": 14.26023477, "ECCENTRICITY": 0.01991822, "INCLINATION": 98.5186, "RA_OF_ASC_NODE": 318.0898, "ARG_OF_PERICENTER": 214.1803, "MEAN_ANOMALY": 308.4364, "EPHEMERIS_TYPE": 0, "CLASSIFICATION_TYPE": "U", "NORAD_CAT_ID": 31285, "ELEMENT_SET_NO": 999, "REV_AT_EPOCH": 97166, "BSTAR": 0.00028332824, "MEAN_MOTION_DOT": 7.86e-06, "MEAN_MOTION_DDOT": 0}, "tle": {"line1": "1 31285U 99025BNT 25337.42490935  .00000786  00000+0  28333-3 0  9992", "line2": "2 31285  98.5186 318.0898 0199182 214.1803 308.4364 14.26023477971667"}}, "geometry": {"type": "Point", "coordinates": [-33.654650305808545, -39.64488698029244]}}, {"type": "Feature", "properties": {"norad_id": 31286, "name": "FENGYUN 1C DEB", "group": "fengyun-1c-debris", "lat": 1.1486123250059201, "lon": 47.52940677308327, "alt_km": 850.2006697933311, "timestamp": "2025-12-04T13:52:00.724218+00:00", "meta": {"OBJECT_NAME": "FENGYUN 1C DEB", "OBJECT_ID": "1999-025BNU", "EPOCH": "2025-11-25T09:34:29.686080", "MEAN_MOTION": 14.22413648, "ECCENTRICITY": 0.00824978, "INCLINATION": 100.8568, "RA_OF_ASC_NODE": 216.0258, "ARG_OF_PERICENTER": 325.142, "MEAN_ANOMALY": 34.4364, "EPHEMERIS_TYPE": 0, "CLASSIFICATION_TYPE": "U", "NORAD_CAT_ID": 31286, "ELEMENT_SET_NO": 999, "REV_AT_EPOCH": 63773, "BSTAR": 0.0038156111, "MEAN_MOTION_DOT": 8.748e-05, "MEAN_MOTION_DDOT": 0}, "tle": {"line1": "1 31286U 99025BNU 25329.39895470  .00008748  00000+0  38156-2 0  9992", "line2": "2 31286 100.8568 216.0258 0082497 325.1420  34.4364 14.22413648637736"}}, "geometry": {"type": "Point", "coordinates": [47.52940677308327, 1.1486123250059201]}}, {"type": "Feature", "properties": {"norad_id": 31287, "name": "FENGYUN 1C DEB", "group": "fengyun-1c-debris", "lat": 72.86960187039755, "lon": 1.3413277574413076, "alt_km": 771.4773996674339, "timestamp": "2025-12-04T13:52:00.724228+00:00", "meta": {"OBJECT_NAME": "FENGYUN 1C DEB", "OBJECT_ID": "1999-025BNV", "EPOCH": "2025-12-01T09:50:16.615392", "MEAN_MOTION": 14.27891237, "ECCENTRICITY": 0.00285984, "INCLINATION": 99.4087, "RA_OF_ASC_NODE": 30.4771, "ARG_OF_PERICENTER": 95.3474, "MEAN_ANOMALY": 265.0968, "EPHEMERIS_TYPE": 0, "CLASSIFICATION_TYPE": "U", "NORAD_CAT_ID": 31287, "ELEMENT_SET_NO": 999, "REV_AT_EPOCH": 96524, "BSTAR": 0.0017630055, "MEAN_MOTION_DOT": 4.336e-05, "MEAN_MOTION_DDOT": 0}, "tle": {"line1": "1 31287U 99025BNV 25335.40991453  .00004336  00000+0  17630-2 0  9993", "line2": "2 31287  99.4087  30.4771 0028598  95.3474 265.0968 14.27891237965242"}}, "geometry": {"type": "Point", "coordinates": [1.3413277574413076, 72.86960187039755]}}]}